{
  "norad_id": 29349,
  "name": "KOREASAT 5 (MUGUNGWHA 5)",
  "history": [
    {
      "epoch": "2026-04-10T06:13:57.266976Z",
      "apogee_km": 35793.05799907528,
      "perigee_km": 35779.015642625985,
      "latitude_deg": -1.0109317532604734,
      "longitude_deg": 113.06501753309568,
      "height_km": 35778.68835701438,
      "semi_major_axis_km": 42164.173820850636,
      "eccentricity": 0.00016652,
      "inclination_deg": 1.6088,
      "raan_deg": 83.8018,
      "arg_perigee_deg": 328.5178,
      "mean_anomaly_deg": 352.7203,
      "mean_motion_rev_day": 1.00273776
    },
    {
      "epoch": "2026-04-11T20:49:57.958752Z",
      "apogee_km": 35793.34280516642,
      "perigee_km": 35779.344197639955,
      "latitude_deg": -0.036082192082850205,
      "longitude_deg": 113.05358210675193,
      "height_km": 35791.82589421441,
      "semi_major_axis_km": 42164.48050140319,
      "eccentricity": 0.000166,
      "inclination_deg": 1.6125,
      "raan_deg": 83.7802,
      "arg_perigee_deg": 330.7756,
      "mean_anomaly_deg": 211.0807,
      "mean_motion_rev_day": 1.00272682
    },
    {
      "epoch": "2026-04-13T05:31:38.803008Z",
      "apogee_km": 35793.553650792084,
      "perigee_km": 35779.66542657717,
      "latitude_deg": -1.172274091694007,
      "longitude_deg": 113.06788450911257,
      "height_km": 35779.6794202493,
      "semi_major_axis_km": 42164.74653868463,
      "eccentricity": 0.00016469,
      "inclination_deg": 1.616,
      "raan_deg": 83.7606,
      "arg_perigee_deg": 332.6031,
      "mean_anomaly_deg": 341.038,
      "mean_motion_rev_day": 1.00271733
    },
    {
      "epoch": "2026-04-14T19:06:31.000896Z",
      "apogee_km": 35793.716600874424,
      "perigee_km": 35780.1225866286,
      "latitude_deg": 0.5936071052252337,
      "longitude_deg": 113.06311813380466,
      "height_km": 35793.10893013816,
      "semi_major_axis_km": 42165.05659375151,
      "eccentricity": 0.0001612,
      "inclination_deg": 1.6202,
      "raan_deg": 83.7368,
      "arg_perigee_deg": 333.6472,
      "mean_anomaly_deg": 185.2755,
      "mean_motion_rev_day": 1.00270627
    },
    {
      "epoch": "2026-04-15T17:59:51.283104Z",
      "apogee_km": 35793.83503401758,
      "perigee_km": 35780.37588862393,
      "latitude_deg": 0.9747789061911164,
      "longitude_deg": 113.06482011784705,
      "height_km": 35793.0915492721,
      "semi_major_axis_km": 42165.24246132076,
      "eccentricity": 0.0001596,
      "inclination_deg": 1.6229,
      "raan_deg": 83.7222,
      "arg_perigee_deg": 334.4683,
      "mean_anomaly_deg": 168.7387,
      "mean_motion_rev_day": 1.00269964
    },
    {
      "epoch": "2026-04-16T18:51:53.106048Z",
      "apogee_km": 35793.97986812623,
      "perigee_km": 35780.62185741131,
      "latitude_deg": 0.6350808187629596,
      "longitude_deg": 113.04934629926765,
      "height_km": 35793.399457743886,
      "semi_major_axis_km": 42165.43786276878,
      "eccentricity": 0.0001584,
      "inclination_deg": 1.6258,
      "raan_deg": 83.7065,
      "arg_perigee_deg": 335.782,
      "mean_anomaly_deg": 181.4619,
      "mean_motion_rev_day": 1.00269267
    },
    {
      "epoch": "2026-04-17T21:19:58.597824Z",
      "apogee_km": 35793.11248129096,
      "perigee_km": 35779.876160226755,
      "latitude_deg": -0.4140697138771929,
      "longitude_deg": 113.02931794287382,
      "height_km": 35790.51848569884,
      "semi_major_axis_km": 42164.63132075886,
      "eccentricity": 0.00015696,
      "inclination_deg": 1.6292,
      "raan_deg": 83.696,
      "arg_perigee_deg": 327.9765,
      "mean_anomaly_deg": 227.3942,
      "mean_motion_rev_day": 1.00272144
    },
    {
      "epoch": "2026-04-18T18:37:15.327840Z",
      "apogee_km": 35793.22059366506,
      "perigee_km": 35780.07361398148,
      "latitude_deg": 0.6744883737021229,
      "longitude_deg": 113.05635079913452,
      "height_km": 35792.600190865225,
      "semi_major_axis_km": 42164.78410382327,
      "eccentricity": 0.0001559,
      "inclination_deg": 1.6318,
      "raan_deg": 83.685,
      "arg_perigee_deg": 328.6674,
      "mean_anomaly_deg": 186.9088,
      "mean_motion_rev_day": 1.00271599
    },
    {
      "epoch": "2026-04-19T17:49:34.798368Z",
      "apogee_km": 35793.37703617549,
      "perigee_km": 35780.238439395194,
      "latitude_deg": 0.9397184349154565,
      "longitude_deg": 113.06354062036611,
      "height_km": 35792.750910476054,
      "semi_major_axis_km": 42164.94473778534,
      "eccentricity": 0.0001558,
      "inclination_deg": 1.6346,
      "raan_deg": 83.671,
      "arg_perigee_deg": 329.7573,
      "mean_anomaly_deg": 174.8659,
      "mean_motion_rev_day": 1.00271026
    },
    {
      "epoch": "2026-04-20T12:20:46.732992Z",
      "apogee_km": 35793.51698887032,
      "perigee_km": 35780.346308027285,
      "latitude_deg": 1.4411132061689669,
      "longitude_deg": 113.05925632659854,
      "height_km": 35786.57308755864,
      "semi_major_axis_km": 42165.0686484488,
      "eccentricity": 0.00015618,
      "inclination_deg": 1.6368,
      "raan_deg": 83.6592,
      "arg_perigee_deg": 330.5647,
      "mean_anomaly_deg": 92.628,
      "mean_motion_rev_day": 1.00270584
    },
    {
      "epoch": "2026-04-21T20:28:38.906112Z",
      "apogee_km": 35793.9198825931,
      "perigee_km": 35780.32580281981,
      "latitude_deg": -0.17953162930143882,
      "longitude_deg": 113.03675057729227,
      "height_km": 35792.272421751964,
      "semi_major_axis_km": 42165.25984270646,
      "eccentricity": 0.0001612,
      "inclination_deg": 1.6407,
      "raan_deg": 83.6418,
      "arg_perigee_deg": 332.392,
      "mean_anomaly_deg": 214.0984,
      "mean_motion_rev_day": 1.00269902
    },
    {
      "epoch": "2026-04-22T17:52:38.655840Z",
      "apogee_km": 35794.22766087361,
      "perigee_km": 35780.26248633083,
      "latitude_deg": 0.8563444894214893,
      "longitude_deg": 113.05836440410543,
      "height_km": 35793.59956991081,
      "semi_major_axis_km": 42165.38207360222,
      "eccentricity": 0.0001656,
      "inclination_deg": 1.6433,
      "raan_deg": 83.6294,
      "arg_perigee_deg": 334.0129,
      "mean_anomaly_deg": 174.3613,
      "mean_motion_rev_day": 1.00269466
    },
    {
      "epoch": "2026-04-23T12:31:17.090112Z",
      "apogee_km": 35794.520729830896,
      "perigee_km": 35780.17687487066,
      "latitude_deg": 1.5183768167649119,
      "longitude_deg": 113.05211674161808,
      "height_km": 35787.1059695069,
      "semi_major_axis_km": 42165.485802350784,
      "eccentricity": 0.00017009,
      "inclination_deg": 1.6455,
      "raan_deg": 83.6192,
      "arg_perigee_deg": 335.4236,
      "mean_anomaly_deg": 93.3795,
      "mean_motion_rev_day": 1.00269096
    },
    {
      "epoch": "2026-04-24T21:31:48.004032Z",
      "apogee_km": 35792.608551493635,
      "perigee_km": 35779.8833407205,
      "latitude_deg": -0.692464322531638,
      "longitude_deg": 113.03230294244109,
      "height_km": 35789.92414160742,
      "semi_major_axis_km": 42164.38294610707,
      "eccentricity": 0.0001509,
      "inclination_deg": 1.6496,
      "raan_deg": 83.6103,
      "arg_perigee_deg": 335.445,
      "mean_anomaly_deg": 229.863,
      "mean_motion_rev_day": 1.0027303
    },
    {
      "epoch": "2026-04-25T19:16:53.677056Z",
      "apogee_km": 35792.9883215472,
      "perigee_km": 35779.71494052615,
      "latitude_deg": 0.2213063982664794,
      "longitude_deg": 113.05664997499807,
      "height_km": 35792.23962890262,
      "semi_major_axis_km": 42164.48863103668,
      "eccentricity": 0.0001574,
      "inclination_deg": 1.652,
      "raan_deg": 83.5986,
      "arg_perigee_deg": 337.787,
      "mean_anomaly_deg": 194.7035,
      "mean_motion_rev_day": 1.00272653
    },
    {
      "epoch": "2026-04-26T22:39:42.420672Z",
      "apogee_km": 35793.5282374466,
      "perigee_km": 35779.450312026,
      "latitude_deg": -1.1377908050217589,
      "longitude_deg": 113.03051341634443,
      "height_km": 35789.2747642105,
      "semi_major_axis_km": 42164.6262747363,
      "eccentricity": 0.00016694,
      "inclination_deg": 1.655,
      "raan_deg": 83.5876,
      "arg_perigee_deg": 341.0009,
      "mean_anomaly_deg": 243.3311,
      "mean_motion_rev_day": 1.00272162
    },
    {
      "epoch": "2026-04-27T19:11:48.062976Z",
      "apogee_km": 35793.91646236632,
      "perigee_km": 35779.26000387528,
      "latitude_deg": 0.20147823371842769,
      "longitude_deg": 113.0574280837343,
      "height_km": 35793.26580802085,
      "semi_major_axis_km": 42164.7252331208,
      "eccentricity": 0.0001738,
      "inclination_deg": 1.6571,
      "raan_deg": 83.5782,
      "arg_perigee_deg": 342.7553,
      "mean_anomaly_deg": 190.4536,
      "mean_motion_rev_day": 1.00271809
    },
    {
      "epoch": "2026-04-28T20:03:38.575296Z",
      "apogee_km": 35794.42071776328,
      "perigee_km": 35779.00524860943,
      "latitude_deg": -0.19866383117715125,
      "longitude_deg": 113.0446329970682,
      "height_km": 35793.37163703151,
      "semi_major_axis_km": 42164.84998318636,
      "eccentricity": 0.0001828,
      "inclination_deg": 1.6597,
      "raan_deg": 83.5653,
      "arg_perigee_deg": 345.1429,
      "mean_anomaly_deg": 202.0602,
      "mean_motion_rev_day": 1.00271364
    },
    {
      "epoch": "2026-04-29T19:06:40.104000Z",
      "apogee_km": 35794.8985663568,
      "perigee_km": 35778.76624906142,
      "latitude_deg": 0.17846023939181874,
      "longitude_deg": 113.05072094467592,
      "height_km": 35794.32004638192,
      "semi_major_axis_km": 42164.96940770911,
      "eccentricity": 0.0001913,
      "inclination_deg": 1.6621,
      "raan_deg": 83.5544,
      "arg_perigee_deg": 347.1745,
      "mean_anomaly_deg": 186.7403,
      "mean_motion_rev_day": 1.00270938
    }
  ]
}